{
  "type": "FeatureCollection",
  "features": [
    {
      "type": "Feature",
      "properties": {
        "norad_id": 34022,
        "name": "COSMOS 2251 DEB",
        "group": "cosmos-2251-debris",
        "lat": 51.69139258899062,
        "lon": -68.21489193365171,
        "alt_km": 753.7253386395496,
        "timestamp": "2025-12-12T20:43:07.429224+00:00",
        "meta_object_name": "COSMOS 2251 DEB",
        "meta_object_id": "1993-036HH",
        "meta_epoch": "2025-12-12T06:09:16.871328",
        "meta_mean_motion": 14.38962561,
        "meta_eccentricity": 0.00227071,
        "meta_inclination": 74.0542,
        "meta_ra_of_asc_node": 271.6853,
        "meta_arg_of_pericenter": 336.7347,
        "meta_mean_anomaly": 175.4704,
        "meta_ephemeris_type": 0,
        "meta_classification_type": "U",
        "meta_norad_cat_id": 34022,
        "meta_element_set_no": 999,
        "meta_rev_at_epoch": 88188,
        "meta_bstar": 0.00039016925,
        "meta_mean_motion_dot": 1.181e-05,
        "meta_mean_motion_ddot": 0,
        "tle_line1": "1 34022U 93036HH  25346.25644527  .00001181  00000+0  39017-3 0  9990",
        "tle_line2": "2 34022  74.0542 271.6853 0022707 336.7347 175.4704 14.38962561881884"
      },
      "geometry": {
        "type": "Point",
        "coordinates": [
          -68.21489193365171,
          51.69139258899062
        ]
      }
    },
    {
      "type": "Feature",
      "properties": {
        "norad_id": 34023,
        "name": "COSMOS 2251 DEB",
        "group": "cosmos-2251-debris",
        "lat": -24.47956196933013,
        "lon": -115.97920942548492,
        "alt_km": 748.9733153021489,
        "timestamp": "2025-12-12T20:43:07.429234+00:00",
        "meta_object_name": "COSMOS 2251 DEB",
        "meta_object_id": "1993-036HJ",
        "meta_epoch": "2025-12-12T04:52:24.757248",
        "meta_mean_motion": 14.40559694,
        "meta_eccentricity": 0.00184591,
        "meta_inclination": 74.025,
        "meta_ra_of_asc_node": 252.7362,
        "meta_arg_of_pericenter": 348.5482,
        "meta_mean_anomaly": 163.5618,
        "meta_ephemeris_type": 0,
        "meta_classification_type": "U",
        "meta_norad_cat_id": 34023,
        "meta_element_set_no": 999,
        "meta_rev_at_epoch": 88206,
        "meta_bstar": 0.00053261999,
        "meta_mean_motion_dot": 1.674e-05,
        "meta_mean_motion_ddot": 0,
        "tle_line1": "1 34023U 93036HJ  25346.20306432  .00001674  00000+0  53262-3 0  9991",
        "tle_line2": "2 34023  74.0250 252.7362 0018459 348.5482 163.5618 14.40559694882061"
      },
      "geometry": {
        "type": "Point",
        "coordinates": [
          -115.97920942548492,
          -24.47956196933013
        ]
      }
    },
    {
      "type": "Feature",
      "properties": {
        "norad_id": 34024,
        "name": "COSMOS 2251 DEB",
        "group": "cosmos-2251-debris",
        "lat": -17.68168738432531,
        "lon": -49.464761295451176,
        "alt_km": 764.6947996747158,
        "timestamp": "2025-12-12T20:43:07.429244+00:00",
        "meta_object_name": "COSMOS 2251 DEB",
        "meta_object_id": "1993-036HK",
        "meta_epoch": "2025-12-12T06:15:33.538176",
        "meta_mean_motion": 14.35395664,
        "meta_eccentricity": 0.0021008,
        "meta_inclination": 74.0465,
        "meta_ra_of_asc_node": 316.8711,
        "meta_arg_of_pericenter": 7.6906,
        "meta_mean_anomaly": 102.1111,
        "meta_ephemeris_type": 0,
        "meta_classification_type": "U",
        "meta_norad_cat_id": 34024,
        "meta_element_set_no": 999,
        "meta_rev_at_epoch": 88017,
        "meta_bstar": 0.0003204286,
        "meta_mean_motion_dot": 8.96e-06,
        "meta_mean_motion_ddot": 0,
        "tle_line1": "1 34024U 93036HK  25346.26080484  .00000896  00000+0  32043-3 0  9993",
        "tle_line2": "2 34024  74.0465 316.8711 0021008   7.6906 102.1111 14.35395664880174"
      },
      "geometry": {
        "type": "Point",
        "coordinates": [
          -49.464761295451176,
          -17.68168738432531
        ]
      }
    },
    {
      "type": "Feature",
      "properties": {
        "norad_id": 34026,
        "name": "COSMOS 2251 DEB",
        "group": "cosmos-2251-debris",
        "lat": -15.908683690699629,
        "lon": 161.84384903036022,
        "alt_km": 765.5984139076572,
        "timestamp": "2025-12-12T20:43:07.429255+00:00",
        "meta_object_name": "COSMOS 2251 DEB",
        "meta_object_id": "1993-036HM",
        "meta_epoch": "2025-12-12T00:42:27.527328",
        "meta_mean_motion": 13.65307375,
        "meta_eccentricity": 0.0350653,
        "meta_inclination": 73.767,
        "meta_ra_of_asc_node": 338.4667,
        "meta_arg_of_pericenter": 208.5868,
        "meta_mean_anomaly": 211.9292,
        "meta_ephemeris_type": 0,
        "meta_classification_type": "U",
        "meta_norad_cat_id": 34026,
        "meta_element_set_no": 999,
        "meta_rev_at_epoch": 83522,
        "meta_bstar": 0.0010532,
        "meta_mean_motion_dot": 1.28e-05,
        "meta_mean_motion_ddot": 0,
        "tle_line1": "1 34026U 93036HM  25346.02948527  .00001280  00000+0  10532-2 0  9996",
        "tle_line2": "2 34026  73.7670 338.4667 0350653 208.5868 211.9292 13.65307375835229"
      },
      "geometry": {
        "type": "Point",
        "coordinates": [
          161.84384903036022,
          -15.908683690699629
        ]
      }
    },
    {
      "type": "Feature",
      "properties": {
        "norad_id": 34028,
        "name": "COSMOS 2251 DEB",
        "group": "cosmos-2251-debris",
        "lat": -18.666045917908868,
        "lon": 172.66628639590496,
        "alt_km": 1056.3365767513305,
        "timestamp": "2025-12-12T20:43:07.429266+00:00",
        "meta_object_name": "COSMOS 2251 DEB",
        "meta_object_id": "1993-036HP",
        "meta_epoch": "2025-12-12T07:11:42.384768",
        "meta_mean_motion": 13.20622261,
        "meta_eccentricity": 0.054371,
        "meta_inclination": 73.8832,
        "meta_ra_of_asc_node": 347.9248,
        "meta_arg_of_pericenter": 125.8465,
        "meta_mean_anomaly": 269.59,
        "meta_ephemeris_type": 0,
        "meta_classification_type": "U",
        "meta_norad_cat_id": 34028,
        "meta_element_set_no": 999,
        "meta_rev_at_epoch": 81002,
        "meta_bstar": 0.00049861522,
        "meta_mean_motion_dot": 4.24e-06,
        "meta_mean_motion_ddot": 0,
        "tle_line1": "1 34028U 93036HP  25346.29979612  .00000424  00000+0  49862-3 0  9994",
        "tle_line2": "2 34028  73.8832 347.9248 0543710 125.8465 269.5900 13.20622261810025"
      },
      "geometry": {
        "type": "Point",
        "coordinates": [
          172.66628639590496,
          -18.666045917908868
        ]
      }
    },
    {
      "type": "Feature",
      "properties": {
        "norad_id": 34031,
        "name": "COSMOS 2251 DEB",
        "group": "cosmos-2251-debris",
        "lat": 0.623450681492735,
        "lon": -44.706632392561175,
        "alt_km": 692.8695772715137,
        "timestamp": "2025-12-12T20:43:07.429277+00:00",
        "meta_object_name": "COSMOS 2251 DEB",
        "meta_object_id": "1993-036HS",
        "meta_epoch": "2025-12-12T05:20:58.628256",
        "meta_mean_motion": 14.59677611,
        "meta_eccentricity": 0.00229588,
        "meta_inclination": 74.0124,
        "meta_ra_of_asc_node": 136.6947,
        "meta_arg_of_pericenter": 256.9886,
        "meta_mean_anomaly": 158.7755,
        "meta_ephemeris_type": 0,
        "meta_classification_type": "U",
        "meta_norad_cat_id": 34031,
        "meta_element_set_no": 999,
        "meta_rev_at_epoch": 88558,
        "meta_bstar": 0.0021313837,
        "meta_mean_motion_dot": 0.00010179,
        "meta_mean_motion_ddot": 0,
        "tle_line1": "1 34031U 93036HS  25346.22290079  .00010179  00000+0  21314-2 0  9993",
        "tle_line2": "2 34031  74.0124 136.6947 0022958 256.9886 158.7755 14.59677611885586"
      },
      "geometry": {
        "type": "Point",
        "coordinates": [
          -44.706632392561175,
          0.623450681492735
        ]
      }
    },
    {
      "type": "Feature",
      "properties": {
        "norad_id": 34035,
        "name": "COSMOS 2251 DEB",
        "group": "cosmos-2251-debris",
        "lat": -20.2606981601935,
        "lon": -17.14558169164975,
        "alt_km": 693.0666178140918,
        "timestamp": "2025-12-12T20:43:07.429288+00:00",
        "meta_object_name": "COSMOS 2251 DEB",
        "meta_object_id": "1993-036HW",
        "meta_epoch": "2025-12-12T03:09:11.696832",
        "meta_mean_motion": 14.51928627,
        "meta_eccentricity": 0.00446689,
        "meta_inclination": 74.0661,
        "meta_ra_of_asc_node": 350.2834,
        "meta_arg_of_pericenter": 351.8965,
        "meta_mean_anomaly": 123.1783,
        "meta_ephemeris_type": 0,
        "meta_classification_type": "U",
        "meta_norad_cat_id": 34035,
        "meta_element_set_no": 999,
        "meta_rev_at_epoch": 87957,
        "meta_bstar": 0.0025029789,
        "meta_mean_motion_dot": 0.00010215,
        "meta_mean_motion_ddot": 0,
        "tle_line1": "1 34035U 93036HW  25346.13138538  .00010215  00000+0  25030-2 0  9998",
        "tle_line2": "2 34035  74.0661 350.2834 0044668 351.8965 123.1783 14.51928627879577"
      },
      "geometry": {
        "type": "Point",
        "coordinates": [
          -17.14558169164975,
          -20.2606981601935
        ]
      }
    }
  ]
}